NORAD_CAT_ID,OBJECT_NAME,OBJECT_TYPE,EPOCH,MEAN_MOTION,ECCENTRICITY,INCLINATION,RA_OF_ASC_NODE,ARG_OF_PERICENTER,MEAN_ANOMALY,BSTAR,MEAN_MOTION_DOT,MEAN_MOTION_DDOT,TLE_LINE0,TLE_LINE1,TLE_LINE2,SEMIMAJOR_AXIS,PERIOD,APOGEE,PERIGEE,DECAYED
55406.0,STARLINK-5630,PAYLOAD,2023-07-04 06:00:02,15.51226053,0.0003277,69.9996,18.3553,269.3252,149.8658,-0.00042459,-0.00025028,0.0,0 STARLINK-5630,1 55406U 23014R   23185.25002315 -.00025028  00000-0 -42459-3 0  9993,2 55406  69.9996  18.3553 0003277 269.3252 149.8658 15.51226053 24291,6791.282,92.83,415.373,410.922,0.0
55406.0,STARLINK-5630,PAYLOAD,2023-07-04 22:00:01,15.51195562,0.000334,69.9997,16.5324,274.6812,266.3517,0.00086611,0.00050986,0.0,0 STARLINK-5630,1 55406U 23014R   23185.91668981  .00050986  00000-0  86611-3 0  9990,2 55406  69.9997  16.5324 0003340 274.6812 266.3517 15.51195562 24402,6791.371,92.832,415.505,410.968,0.0
55406.0,STARLINK-5630,PAYLOAD,2023-07-05 14:00:01,15.51239167,0.0003435,70.0004,14.7094,266.9284,35.8961,-6.1556e-05,-3.781e-05,0.0,0 STARLINK-5630,1 55406U 23014R   23186.58335648 -.00003781  00000-0 -61556-4 0  9990,2 55406  70.0004  14.7094 0003435 266.9284  35.8961 15.51239167 24503,6791.244,92.829,415.442,410.776,0.0
55406.0,STARLINK-5630,PAYLOAD,2023-07-06 22:00:01,15.51197059,0.0003426,70.0006,11.0635,273.8686,272.6465,0.00088297,0.00051992,0.0,0 STARLINK-5630,1 55406U 23014R   23187.91668981  .00051992  00000-0  88297-3 0  9992,2 55406  70.0006  11.0635 0003426 273.8686 272.6465 15.51197059 24715,6791.367,92.832,415.559,410.905,0.0
55406.0,STARLINK-5630,PAYLOAD,2023-07-07 14:00:01,15.51243658,0.0003442,70.0009,9.2411,267.1757,41.0714,-0.00027344,-0.00016205,0.0,0 STARLINK-5630,1 55406U 23014R   23188.58334491 -.00016205  00000-0 -27344-3 0  9998,2 55406  70.0009   9.2411 0003442 267.1757  41.0714 15.51243658 24815,6791.231,92.829,415.433,410.758,0.0
55406.0,STARLINK-5630,PAYLOAD,2023-07-08 07:14:48,15.51230076,0.0003368,69.9977,7.277,269.059,91.021,1.2938e-05,5.95e-06,0.0,0 STARLINK-5630,1 55406U 23014R   23189.30195255  .00000595  00000-0  12938-4 0  9999,2 55406  69.9977   7.2770 0003368 269.0590  91.0210 15.51230076 24923,6791.271,92.83,415.423,410.848,0.0
55406.0,STARLINK-5630,PAYLOAD,2023-07-08 14:59:06,15.512171,0.0003453,69.9978,6.3956,268.3462,91.7329,-1.231e-05,-8.88e-06,0.0,0 STARLINK-5630,1 55406U 23014R   23189.62438550 -.00000888  00000-0 -12310-4 0  9993,2 55406  69.9978   6.3956 0003453 268.3462  91.7329 15.51217100 24971,6791.308,92.83,415.518,410.828,0.0
55406.0,STARLINK-5630,PAYLOAD,2023-07-08 21:10:32,15.51235051,0.0003385,69.9979,5.6904,266.1687,93.9112,-5.3985e-05,-3.336e-05,0.0,0 STARLINK-5630,1 55406U 23014R   23189.88231677 -.00003336  00000-0 -53985-4 0  9996,2 55406  69.9979   5.6904 0003385 266.1687  93.9112 15.51235051 25011,6791.256,92.829,415.42,410.822,0.0
55406.0,STARLINK-5630,PAYLOAD,2023-07-09 21:56:15,15.51225577,0.0003417,69.998,2.8691,266.2955,93.784,1.9562e-05,9.84e-06,0.0,0 STARLINK-5630,1 55406U 23014R   23190.91406498  .00000984  00000-0  19562-4 0  9994,2 55406  69.9980   2.8691 0003417 266.2955  93.7840 15.51225577 25175,6791.284,92.83,415.469,410.828,0.0
55406.0,STARLINK-5630,PAYLOAD,2023-07-10 14:57:48,15.51131078,0.0004923,69.9987,0.931,290.5775,69.4882,-0.00017591,-0.00010453,0.0,0 STARLINK-5630,1 55406U 23014R   23191.62347650 -.00010453  00000-0 -17591-3 0  9990,2 55406  69.9987   0.9310 0004923 290.5775  69.4882 15.51131078 25282,6791.559,92.835,416.768,410.081,0.0
55406.0,STARLINK-5630,PAYLOAD,2023-07-10 21:09:35,15.50884342,0.0003618,69.9987,0.2278,263.144,96.9335,-0.000718,-0.00041617,0.0,0 STARLINK-5630,1 55406U 23014R   23191.88166279 -.00041617  00000-0 -71800-3 0  9993,2 55406  69.9987   0.2278 0003618 263.1440  96.9335 15.50884342 25324,6792.28,92.85,416.602,411.687,0.0
55406.0,STARLINK-5630,PAYLOAD,2023-07-11 09:33:33,15.5019106,0.0003962,69.9977,358.8178,266.7771,93.2961,-0.0021832,-0.00121922,0.0,0 STARLINK-5630,1 55406U 23014R   23192.39830013 -.00121922  00000-0 -21832-2 0  9991,2 55406  69.9977 358.8178 0003962 266.7771  93.2961 15.50191060 25404,6794.305,92.892,418.862,413.478,0.0
55406.0,STARLINK-5630,PAYLOAD,2023-07-11 22:00:00,15.48331693,0.0003746,70.0005,357.4021,274.6042,97.9009,-0.0182,-0.00878992,0.0,0 STARLINK-5630,1 55406U 23014R   23192.91667824 -.00878992  00000-0 -18200-1 0  9997,2 55406  70.0005 357.4021 0003746 274.6042  97.9009 15.48331693 25487,6799.743,93.003,424.155,419.061,0.0
55406.0,STARLINK-5630,PAYLOAD,2023-07-12 14:00:01,15.47062063,0.0003545,70.0004,355.589,272.728,213.1796,-0.020695,-0.00962463,0.0,0 STARLINK-5630,1 55406U 23014R   23193.58335648 -.00962463  00000-0 -20695-1 0  9995,2 55406  70.0004 355.5890 0003545 272.7280 213.1796 15.47062063 25586,6803.463,93.08,427.74,422.916,0.0
55406.0,STARLINK-5630,PAYLOAD,2023-07-13 18:00:00,15.44724974,0.0003395,70.0001,352.4249,275.5701,221.1109,-0.020012,-0.00855136,0.0,0 STARLINK-5630,1 55406U 23014R   23194.75001157 -.00855136  00000-0 -20012-1 0  9991,2 55406  70.0001 352.4249 0003395 275.5701 221.1109 15.44724974 25769,6810.323,93.22,434.5,429.876,0.0
55406.0,STARLINK-5630,PAYLOAD,2023-07-14 04:00:01,15.4391863,0.0003384,70.0,351.297,271.0193,21.5541,-0.021136,-0.0088839,0.0,0 STARLINK-5630,1 55406U 23014R   23195.16668981 -.00888390  00000-0 -21136-1 0  9997,2 55406  70.0000 351.2970 0003384 271.0193  21.5541 15.43918630 25833,6812.694,93.269,436.865,432.254,0.0
55406.0,STARLINK-5630,PAYLOAD,2023-07-14 22:00:00,15.42480137,0.000328,70.0001,349.2711,277.1805,220.7265,-0.023112,-0.00922371,0.0,0 STARLINK-5630,1 55406U 23014R   23195.91667824 -.00922371  00000-0 -23112-1 0  9999,2 55406  70.0001 349.2711 0003280 277.1805 220.7265 15.42480137 25949,6816.929,93.356,441.03,436.558,0.0
55406.0,STARLINK-5630,PAYLOAD,2023-07-15 22:00:00,15.40528044,0.0003251,70.0002,346.5767,274.5913,11.0359,-0.024969,-0.00932633,0.0,0 STARLINK-5630,1 55406U 23014R   23196.91667824 -.00932633  00000-0 -24969-1 0  9993,2 55406  70.0002 346.5767 0003251 274.5913  11.0359 15.40528044 26102,6822.687,93.474,446.77,442.334,0.0
55406.0,STARLINK-5630,PAYLOAD,2023-07-17 02:00:01,15.38234123,0.0003273,70.0004,343.444,272.204,356.875,-0.026818,-0.00929089,0.0,0 STARLINK-5630,1 55406U 23014R   23198.08334491 -.00929089  00000-0 -26818-1 0  9990,2 55406  70.0004 343.4440 0003273 272.2040 356.8750 15.38234123 26281,6829.468,93.614,453.568,449.098,0.0
55406.0,STARLINK-5630,PAYLOAD,2023-07-18 06:00:00,15.35923874,0.00032,70.0008,340.3218,264.2904,338.6504,-0.026613,-0.00860939,0.0,0 STARLINK-5630,1 55406U 23014R   23199.25001157 -.00860939  00000-0 -26613-1 0  9991,2 55406  70.0008 340.3218 0003200 264.2904 338.6504 15.35923874 26464,6836.315,93.755,460.367,455.992,0.0
55406.0,STARLINK-5630,PAYLOAD,2023-07-18 14:00:01,15.35289092,0.000325,70.0011,339.4319,267.0178,18.1265,-0.028919,-0.009122,0.0,0 STARLINK-5630,1 55406U 23014R   23199.58334491 -.00912200  00000-0 -28919-1 0  9997,2 55406  70.0011 339.4319 0003250 267.0178  18.1265 15.35289092 26515,6838.199,93.793,462.286,457.842,0.0
55406.0,STARLINK-5630,PAYLOAD,2023-07-19 14:00:01,15.33334027,0.0003402,70.0014,336.7668,270.8824,136.1658,-0.030793,-0.00912634,0.0,0 STARLINK-5630,1 55406U 23014R   23200.58334491 -.00912634  00000-0 -30793-1 0  9994,2 55406  70.0014 336.7668 0003402 270.8824 136.1658 15.33334027 26664,6844.01,93.913,468.204,463.547,0.0
55406.0,STARLINK-5630,PAYLOAD,2023-07-21 14:00:01,15.29412643,0.0003243,70.0011,331.4608,271.0652,358.6773,-0.034343,-0.00901276,0.0,0 STARLINK-5630,1 55406U 23014R   23202.58334491 -.00901276  00000-0 -34343-1 0  9991,2 55406  70.0011 331.4608 0003243 271.0652 358.6773 15.29412643 26971,6855.704,94.154,479.792,475.346,0.0
55406.0,STARLINK-5630,PAYLOAD,2023-07-24 14:00:01,15.23536893,0.0003262,70.0004,323.5614,271.5523,279.4237,-0.040593,-0.00902973,0.0,0 STARLINK-5630,1 55406U 23014R   23205.58334491 -.00902973  00000-0 -40593-1 0  9993,2 55406  70.0004 323.5614 0003262 271.5523 279.4237 15.23536893  2310,6873.319,94.517,497.426,492.942,0.0
55406.0,STARLINK-5630,PAYLOAD,2023-07-25 14:00:01,15.21582163,0.0003412,70.0003,320.9436,272.1013,358.5994,-0.043152,-0.00905703,0.0,0 STARLINK-5630,1 55406U 23014R   23206.58335648 -.00905703  00000-0 -43152-1 0  9997,2 55406  70.0003 320.9436 0003412 272.1013 358.5994 15.21582163  2475,6879.205,94.638,503.417,498.723,0.0
55406.0,STARLINK-5630,PAYLOAD,2023-07-26 14:00:01,15.19625886,0.0003484,70.0002,318.3334,272.2761,70.9827,-0.045694,-0.00905651,0.0,0 STARLINK-5630,1 55406U 23014R   23207.58334491 -.00905651  00000-0 -45694-1 0  9998,2 55406  70.0002 318.3334 0003484 272.2761  70.9827 15.19625886  2626,6885.107,94.76,509.371,504.574,0.0
55406.0,STARLINK-5630,PAYLOAD,2023-07-27 00:00:00,15.18819803,0.000341,70.0,317.2479,274.4093,187.0248,-0.047522,-0.00919025,0.0,0 STARLINK-5630,1 55406U 23014R   23208.00001157 -.00919025  00000-0 -47522-1 0  9998,2 55406  70.0000 317.2479 0003410 274.4093 187.0248 15.18819803  2690,6887.543,94.81,511.757,507.06,0.0
55406.0,STARLINK-5630,PAYLOAD,2023-07-27 14:00:01,15.17670749,0.0003512,70.0002,315.7311,275.2694,133.5701,-0.048499,-0.00908126,0.0,0 STARLINK-5630,1 55406U 23014R   23208.58334491 -.00908126  00000-0 -48499-1 0  9995,2 55406  70.0002 315.7311 0003512 275.2694 133.5701 15.17670749 27880,6891.019,94.882,515.304,510.464,0.0
55406.0,STARLINK-5630,PAYLOAD,2023-07-27 22:00:00,15.17051163,0.0003447,70.0,314.8655,276.5267,152.5951,-0.052448,-0.0096047,0.0,0 STARLINK-5630,1 55406U 23014R   23208.91667824 -.00960470  00000-0 -52448-1 0  9990,2 55406  70.0000 314.8655 0003447 276.5267 152.5951 15.17051163  2835,6892.895,94.921,517.136,512.384,0.0
55406.0,STARLINK-5630,PAYLOAD,2023-07-28 14:00:01,15.1571141,0.0003419,70.0004,313.1369,275.1162,192.2651,-0.051028,-0.00903634,0.0,0 STARLINK-5630,1 55406U 23014R   23209.58334491 -.00903634  00000-0 -51028-1 0  9997,2 55406  70.0004 313.1369 0003419 275.1162 192.2651 15.15711410 28035,6896.957,95.005,521.18,516.464,0.0
